{
"type": "FeatureCollection",
"name": "sectores",
"crs": { "type": "name", "properties": { "name": "urn:ogc:def:crs:OGC:1.3:CRS84" } },
"features": [
{ "type": "Feature", "properties": { "id": 1, "qgs_fid": 1, "objectid_1": 1.0, "objectid": 1.0, "proyectoid": 2.0, "fid_": 0.0, "cod_sec": "S01", "shape_leng": 2753.3521549299999, "shape_area": 268717.71898399998 }, "geometry": { "type": "MultiPolygon", "coordinates": [ [ [ [ -76.333614274162215, -13.185952697242422 ], [ -76.333613690362768, -13.185953036366238 ], [ -76.332559731536293, -13.187043980712883 ], [ -76.33163272044699, -13.186204869450123 ], [ -76.331917747664122, -13.185925895681619 ], [ -76.331199252614027, -13.185282458467748 ], [ -76.330886082471523, -13.185596652330629 ], [ -76.329965339972617, -13.184741107098771 ], [ -76.329908858908524, -13.184801920721419 ], [ -76.328510791388226, -13.183402442974055 ], [ -76.327412569451468, -13.184664900595363 ], [ -76.332773888759164, -13.189457738089015 ], [ -76.334898316058656, -13.187305950356686 ], [ -76.334810397129672, -13.187218481018265 ], [ -76.333614274162215, -13.185952697242422 ] ] ] ] } },
{ "type": "Feature", "properties": { "id": 2, "qgs_fid": 2, "objectid_1": 2.0, "objectid": 0.0, "proyectoid": 3.0, "fid_": 0.0, "cod_sec": "S05", "shape_leng": 2966.2740566799998, "shape_area": 371154.287595 }, "geometry": { "type": "MultiPolygon", "coordinates": [ [ [ [ -76.322759140030939, -13.162907694635518 ], [ -76.32283338746133, -13.162837626613253 ], [ -76.322859874257091, -13.162826229366509 ], [ -76.322887754414168, -13.16281867525529 ], [ -76.322916453108832, -13.16281512092861 ], [ -76.322945375693777, -13.162815639061884 ], [ -76.322973922462722, -13.162820219184892 ], [ -76.323510354164085, -13.162945692519232 ], [ -76.323538224202693, -13.16294897153267 ], [ -76.323566292966447, -13.162949228208021 ], [ -76.323603447437563, -13.162943912525444 ], [ -76.323639252653791, -13.162932834195002 ], [ -76.32367278483963, -13.162916279138019 ], [ -76.323703178178647, -13.162894674911961 ], [ -76.323729648740425, -13.16286857973849 ], [ -76.323751512843558, -13.1628386661358 ], [ -76.323768205438427, -13.162805708167038 ], [ -76.323779295648137, -13.162770555142819 ], [ -76.323744752088245, -13.16189932030327 ], [ -76.323676715632317, -13.161769026099089 ], [ -76.323602651038797, -13.161641928905384 ], [ -76.323549635524444, -13.161559934342666 ], [ -76.323522713808714, -13.161518295511494 ], [ -76.323437071400761, -13.161398386316614 ], [ -76.323345905993477, -13.161282454411722 ], [ -76.32324940801351, -13.161170742900826 ], [ -76.323147780767243, -13.161063488493328 ], [ -76.323068111499353, -13.160986786920937 ], [ -76.323041239489456, -13.160960916084681 ], [ -76.322930008594795, -13.160863242386894 ], [ -76.322797586993076, -13.160747990209858 ], [ -76.322752980371263, -13.160705975000303 ], [ -76.322669898851331, -13.160627717825633 ], [ -76.322547143524375, -13.160502613159153 ], [ -76.322429509314787, -13.160372867808755 ], [ -76.322375553483695, -13.160308415312743 ], [ -76.322317179046976, -13.160238684249594 ], [ -76.322210327275442, -13.160100271327893 ], [ -76.322195815207763, -13.160079847782926 ], [ -76.32215972375765, -13.160029056444907 ], [ -76.322136886699127, -13.159996917777665 ], [ -76.322109120274988, -13.159957842452789 ], [ -76.321678908652601, -13.159326235190605 ], [ -76.321439721251437, -13.158975075493071 ], [ -76.321188153744984, -13.15860573831074 ], [ -76.321107389794207, -13.158487164509797 ], [ -76.320723157289066, -13.157923053154997 ], [ -76.320714197407554, -13.15790989838737 ], [ -76.320629366862704, -13.157780016729237 ], [ -76.320575665284892, -13.157706510250076 ], [ -76.319142373102466, -13.155602184423891 ], [ -76.318500263447305, -13.154659437539957 ], [ -76.318094400302172, -13.154063543673541 ], [ -76.318051769799382, -13.154019438002317 ], [ -76.318004740991753, -13.153979859746681 ], [ -76.317953810570671, -13.15394522583277 ], [ -76.317899518327224, -13.153915905051489 ], [ -76.317842438792113, -13.153892207253 ], [ -76.317783176613418, -13.153874381562398 ], [ -76.317722359191663, -13.153862619129749 ], [ -76.317253926119307, -13.153797037506624 ], [ -76.317062779541587, -13.153736045334481 ], [ -76.317277788323238, -13.153949351635223 ], [ -76.316726475004018, -13.154309964203044 ], [ -76.316687350696668, -13.154476113143525 ], [ -76.314835658542378, -13.157487695318753 ], [ -76.3195208124001, -13.160700555227578 ], [ -76.322719230964623, -13.162893779125618 ], [ -76.322759140030939, -13.162907694635518 ] ] ] ] } },
{ "type": "Feature", "properties": { "id": 3, "qgs_fid": 3, "objectid_1": 3.0, "objectid": 0.0, "proyectoid": 3.0, "fid_": 0.0, "cod_sec": "S03", "shape_leng": 2805.7776121000002, "shape_area": 287368.32143900002 }, "geometry": { "type": "MultiPolygon", "coordinates": [ [ [ [ -76.319728050729424, -13.14949798063809 ], [ -76.319805425832357, -13.149547517225242 ], [ -76.320484525720431, -13.149959039741349 ], [ -76.321270323752202, -13.150435214862183 ], [ -76.322084152555774, -13.150928371969368 ], [ -76.322246584579219, -13.151026800086104 ], [ -76.322286075556676, -13.151053103408165 ], [ -76.322323106992158, -13.151082645010369 ], [ -76.322361854854876, -13.151119867568369 ], [ -76.322396697391142, -13.151160628758863 ], [ -76.322427300408208, -13.151204537948626 ], [ -76.322453369209228, -13.151251172659656 ], [ -76.322474653239595, -13.151300084873446 ], [ -76.32249094886906, -13.15135080372872 ], [ -76.322674014028507, -13.152042081211833 ], [ -76.322681566826745, -13.152099092902091 ], [ -76.322682920134696, -13.152156566835018 ], [ -76.322678059427872, -13.152213859406809 ], [ -76.32266703751246, -13.152270324858499 ], [ -76.322649980143282, -13.152325330615774 ], [ -76.322645550330236, -13.152368357872854 ], [ -76.322647772632095, -13.152411548866809 ], [ -76.32265659657817, -13.15245392025758 ], [ -76.32265981651436, -13.152473784502032 ], [ -76.322684459586071, -13.152625775611654 ], [ -76.322719022950622, -13.152796457362419 ], [ -76.322728439659784, -13.152835133581226 ], [ -76.322760235533224, -13.152965716253288 ], [ -76.322808036969633, -13.153133303074803 ], [ -76.322862356757568, -13.153298970477385 ], [ -76.32291768069102, -13.153447849122109 ], [ -76.322923116125281, -13.153462477481963 ], [ -76.322990225220863, -13.153623581358131 ], [ -76.323063585005443, -13.153782046654852 ], [ -76.323132076838135, -13.153916091663225 ], [ -76.323143088151198, -13.153937640675661 ], [ -76.32322861720148, -13.154090134392211 ], [ -76.323320047342776, -13.154239303334105 ], [ -76.323417243647157, -13.154384929411282 ], [ -76.323520064742539, -13.154526797278853 ], [ -76.323628357311932, -13.154664700693935 ], [ -76.323741963429285, -13.154798434341442 ], [ -76.323860716923434, -13.154927803797367 ], [ -76.323984441488847, -13.155052617402152 ], [ -76.324078480253092, -13.155102078303599 ], [ -76.324175335308809, -13.155146008177818 ], [ -76.324274670040452, -13.155184255070395 ], [ -76.325556132494555, -13.15574026838056 ], [ -76.326146180042954, -13.154434261557508 ], [ -76.32625076560916, -13.154202771313045 ], [ -76.32649450251543, -13.153663279434921 ], [ -76.32653246229448, -13.15358034455901 ], [ -76.326137579780593, -13.153418405547463 ], [ -76.32502199000858, -13.152939812402177 ], [ -76.324318776525232, -13.152730237230307 ], [ -76.326388895182546, -13.149987106906144 ], [ -76.320936760658469, -13.147549282024803 ], [ -76.32047346264207, -13.148517302886029 ], [ -76.319728050729424, -13.14949798063809 ] ] ] ] } },
{ "type": "Feature", "properties": { "id": 4, "qgs_fid": 4, "objectid_1": 4.0, "objectid": 0.0, "proyectoid": 3.0, "fid_": 0.0, "cod_sec": "S06", "shape_leng": 2546.8774573000001, "shape_area": 304737.61526699999 }, "geometry": { "type": "MultiPolygon", "coordinates": [ [ [ [ -76.325556132494555, -13.15574026838056 ], [ -76.325619396530485, -13.155767717660771 ], [ -76.326378566896537, -13.156097109501799 ], [ -76.326473956929021, -13.156141918399937 ], [ -76.326566414691399, -13.156192285086906 ], [ -76.326655603401036, -13.156248025072429 ], [ -76.326741199096702, -13.15630893662361 ], [ -76.326822888779375, -13.156374798062417 ], [ -76.326900375946366, -13.156445367736945 ], [ -76.326973377858607, -13.156520390363848 ], [ -76.327041629200934, -13.156599591585067 ], [ -76.327085937180769, -13.156657798091558 ], [ -76.327098444497864, -13.156674227704849 ], [ -76.327104880266447, -13.156682683401346 ], [ -76.327162901559205, -13.1567693623404 ], [ -76.327215481055973, -13.156859314895138 ], [ -76.32827422973449, -13.158804408076524 ], [ -76.32831546781577, -13.158880169484666 ], [ -76.328363790232075, -13.158976012769603 ], [ -76.328405934650235, -13.159074616399176 ], [ -76.328441738484898, -13.159175597904589 ], [ -76.328471062168504, -13.159278566561259 ], [ -76.328474356013217, -13.159293714811287 ], [ -76.328493793763968, -13.159383123365002 ], [ -76.328509842516652, -13.159488862873275 ], [ -76.328519149021901, -13.159595376768824 ], [ -76.328521675985428, -13.159702251195245 ], [ -76.3285193270288, -13.159761114621434 ], [ -76.328517412870056, -13.159809073061224 ], [ -76.328506377731145, -13.15991542822295 ], [ -76.328488612618955, -13.160020904219982 ], [ -76.32846418544321, -13.160125093881827 ], [ -76.32843319272142, -13.160227591697515 ], [ -76.328278359923786, -13.160686679257132 ], [ -76.328499836924408, -13.160777326976456 ], [ -76.328758031258872, -13.160889795151029 ], [ -76.329013338285492, -13.161008424563935 ], [ -76.329265605407812, -13.161133141880972 ], [ -76.329601995256283, -13.161313706143359 ], [ -76.330257982917658, -13.160851634035074 ], [ -76.332445684841701, -13.159361860858406 ], [ -76.331168523328614, -13.157862270740299 ], [ -76.33153867546325, -13.157179763936556 ], [ -76.331735958817362, -13.156688487143139 ], [ -76.330954257889459, -13.156219802170806 ], [ -76.33070725989748, -13.156105130709513 ], [ -76.33083749849088, -13.155854838495809 ], [ -76.330897560969049, -13.155745681673153 ], [ -76.33061013547146, -13.155567585933905 ], [ -76.330445507687344, -13.15545758257076 ], [ -76.330181450812233, -13.155318297760724 ], [ -76.32866863353064, -13.154447089719605 ], [ -76.327230266026405, -13.153866509054033 ], [ -76.32653246229448, -13.15358034455901 ], [ -76.32649450251543, -13.153663279434921 ], [ -76.32625076560916, -13.154202771313045 ], [ -76.326146180042954, -13.154434261557508 ], [ -76.325556132494555, -13.15574026838056 ] ] ] ] } },
{ "type": "Feature", "properties": { "id": 5, "qgs_fid": 5, "objectid_1": 5.0, "objectid": 0.0, "proyectoid": 3.0, "fid_": 0.0, "cod_sec": "S02", "shape_leng": 2341.0118087000001, "shape_area": 311545.08375400002 }, "geometry": { "type": "MultiPolygon", "coordinates": [ [ [ [ -76.317062779541587, -13.153736045334481 ], [ -76.317253926119307, -13.153797037506624 ], [ -76.317722359191663, -13.153862619129749 ], [ -76.317783176613418, -13.153874381562398 ], [ -76.317842438792113, -13.153892207253 ], [ -76.317899518327224, -13.153915905051489 ], [ -76.317953810570671, -13.15394522583277 ], [ -76.318004740991753, -13.153979859746681 ], [ -76.318051769799382, -13.154019438002317 ], [ -76.318094400302172, -13.154063543673541 ], [ -76.318500263447305, -13.154659437539957 ], [ -76.319142373102466, -13.155602184423891 ], [ -76.320575665284892, -13.157706510250076 ], [ -76.320705131804061, -13.157611371863551 ], [ -76.320830188597341, -13.157510726968422 ], [ -76.320950592247712, -13.157404772096811 ], [ -76.321066106777451, -13.157293714591173 ], [ -76.321176509168851, -13.157177769863765 ], [ -76.321281582921202, -13.157057164141758 ], [ -76.321381123576046, -13.156932132630704 ], [ -76.32147493686729, -13.15680291862 ], [ -76.321497359369758, -13.15676895675098 ], [ -76.321562841493588, -13.156669774372496 ], [ -76.321644665408783, -13.156532957527444 ], [ -76.321720248618391, -13.156392736510288 ], [ -76.321789444985953, -13.156249383290961 ], [ -76.321852119489535, -13.156103177918146 ], [ -76.321908149124624, -13.155954404898502 ], [ -76.321957425676743, -13.1558033540863 ], [ -76.321999852943691, -13.155650318889684 ], [ -76.322035348590504, -13.1554955980691 ], [ -76.322063842294341, -13.155339493938808 ], [ -76.322085280342591, -13.155182309631037 ], [ -76.322099619184641, -13.155024350937211 ], [ -76.322106831889613, -13.154865926274805 ], [ -76.322106869798787, -13.154783669863251 ], [ -76.322106904441227, -13.154707343994179 ], [ -76.322099837587885, -13.154548913273189 ], [ -76.322125036717566, -13.154440104866334 ], [ -76.322156673519288, -13.15433292404955 ], [ -76.322194641084423, -13.15422773570109 ], [ -76.322238809409029, -13.154124898489323 ], [ -76.322249799869383, -13.154102983948381 ], [ -76.322289028151772, -13.15402476305046 ], [ -76.322345125706462, -13.15392767108939 ], [ -76.322406911042435, -13.153833954466128 ], [ -76.322440541444863, -13.153788942577467 ], [ -76.322474172762796, -13.153743931584671 ], [ -76.322546681881562, -13.153657909186707 ], [ -76.322562187360163, -13.153641560187106 ], [ -76.322624190901394, -13.153576182356506 ], [ -76.322706436547008, -13.153499028178649 ], [ -76.322793137021861, -13.153426710272329 ], [ -76.322807674297991, -13.153415952330796 ], [ -76.322883997524073, -13.153359475146985 ], [ -76.322884572997225, -13.153358755276937 ], [ -76.322862356757568, -13.153298970477385 ], [ -76.322808036969633, -13.153133303074803 ], [ -76.322760235533224, -13.152965716253288 ], [ -76.322728439659784, -13.152835133581226 ], [ -76.322719022950622, -13.152796457362419 ], [ -76.322684459586071, -13.152625775611654 ], [ -76.32265981651436, -13.152473784502032 ], [ -76.32265659657817, -13.15245392025758 ], [ -76.322647772632095, -13.152411548866809 ], [ -76.322645550330236, -13.152368357872854 ], [ -76.322649980143282, -13.152325330615774 ], [ -76.32266703751246, -13.152270324858499 ], [ -76.322678059427872, -13.152213859406809 ], [ -76.322682920134696, -13.152156566835018 ], [ -76.322681566826745, -13.152099092902091 ], [ -76.322674014028507, -13.152042081211833 ], [ -76.32249094886906, -13.15135080372872 ], [ -76.322474653239595, -13.151300084873446 ], [ -76.322453369209228, -13.151251172659656 ], [ -76.322427300408208, -13.151204537948626 ], [ -76.322396697391142, -13.151160628758863 ], [ -76.322361854854876, -13.151119867568369 ], [ -76.322323106992158, -13.151082645010369 ], [ -76.322286075556676, -13.151053103408165 ], [ -76.322246584579219, -13.151026800086104 ], [ -76.322084152555774, -13.150928371969368 ], [ -76.321270323752202, -13.150435214862183 ], [ -76.320484525720431, -13.149959039741349 ], [ -76.319805425832357, -13.149547517225242 ], [ -76.319728050729424, -13.14949798063809 ], [ -76.319673750199215, -13.149569417793709 ], [ -76.317777938981408, -13.15257398469755 ], [ -76.317595231705411, -13.152910853310827 ], [ -76.317159164058268, -13.152965407561457 ], [ -76.317048998995531, -13.153722373597386 ], [ -76.317062779541587, -13.153736045334481 ] ] ] ] } },
{ "type": "Feature", "properties": { "id": 6, "qgs_fid": 6, "objectid_1": 6.0, "objectid": 0.0, "proyectoid": 3.0, "fid_": 0.0, "cod_sec": "S04", "shape_leng": 2641.8146739399999, "shape_area": 368244.71086 }, "geometry": { "type": "MultiPolygon", "coordinates": [ [ [ [ -76.320575665284892, -13.157706510250076 ], [ -76.320629366862704, -13.157780016729237 ], [ -76.320714197407554, -13.15790989838737 ], [ -76.320723157289066, -13.157923053154997 ], [ -76.321107389794207, -13.158487164509797 ], [ -76.321188153744984, -13.15860573831074 ], [ -76.321439721251437, -13.158975075493071 ], [ -76.321678908652601, -13.159326235190605 ], [ -76.322109120274988, -13.159957842452789 ], [ -76.322136886699127, -13.159996917777665 ], [ -76.322415716234346, -13.159957063629093 ], [ -76.322696224132997, -13.159923819038841 ], [ -76.322977479361214, -13.15989731445865 ], [ -76.323259311350867, -13.159877564323772 ], [ -76.323450699119377, -13.159868760651205 ], [ -76.323541553219371, -13.159864582147065 ], [ -76.323824034355553, -13.15985837422903 ], [ -76.324106585983856, -13.159858945053353 ], [ -76.324389038382037, -13.159866294589074 ], [ -76.324671222721335, -13.159880417377154 ], [ -76.324952969240826, -13.159901306155984 ], [ -76.325234109990475, -13.159928947327073 ], [ -76.325514475165505, -13.159963325494168 ], [ -76.325793898616979, -13.160004418914586 ], [ -76.325933055005393, -13.160028311070622 ], [ -76.326072211413575, -13.160052203148625 ], [ -76.326349246449254, -13.160106650131757 ], [ -76.326624839356001, -13.160167726361758 ], [ -76.326898822987999, -13.160235396543429 ], [ -76.326996948854301, -13.160262151695354 ], [ -76.327171034777692, -13.160309619030295 ], [ -76.327441311219488, -13.160390349469374 ], [ -76.327709488788088, -13.160477539892293 ], [ -76.327975408545527, -13.160571137787425 ], [ -76.328192407674351, -13.16065344747587 ], [ -76.328278359923786, -13.160686679257132 ], [ -76.32843319272142, -13.160227591697515 ], [ -76.32846418544321, -13.160125093881827 ], [ -76.328488612618955, -13.160020904219982 ], [ -76.328506377731145, -13.15991542822295 ], [ -76.328517412870056, -13.159809073061224 ], [ -76.3285193270288, -13.159761114621434 ], [ -76.328521675985428, -13.159702251195245 ], [ -76.328519149021901, -13.159595376768824 ], [ -76.328509842516652, -13.159488862873275 ], [ -76.328493793763968, -13.159383123365002 ], [ -76.328474356013217, -13.159293714811287 ], [ -76.328471062168504, -13.159278566561259 ], [ -76.328441738484898, -13.159175597904589 ], [ -76.328405934650235, -13.159074616399176 ], [ -76.328363790232075, -13.158976012769603 ], [ -76.32831546781577, -13.158880169484666 ], [ -76.32827422973449, -13.158804408076524 ], [ -76.327215481055973, -13.156859314895138 ], [ -76.327162901559205, -13.1567693623404 ], [ -76.327104880266447, -13.156682683401346 ], [ -76.327098444497864, -13.156674227704849 ], [ -76.327085937180769, -13.156657798091558 ], [ -76.327041629200934, -13.156599591585067 ], [ -76.326973377858607, -13.156520390363848 ], [ -76.326900375946366, -13.156445367736945 ], [ -76.326822888779375, -13.156374798062417 ], [ -76.326741199096702, -13.15630893662361 ], [ -76.326655603401036, -13.156248025072429 ], [ -76.326566414691399, -13.156192285086906 ], [ -76.326473956929021, -13.156141918399937 ], [ -76.326378566896537, -13.156097109501799 ], [ -76.325619396530485, -13.155767717660771 ], [ -76.325556132494555, -13.15574026838056 ], [ -76.324274670040452, -13.155184255070395 ], [ -76.324175335308809, -13.155146008177818 ], [ -76.324078480253092, -13.155102078303599 ], [ -76.323984441488847, -13.155052617402152 ], [ -76.323860716923434, -13.154927803797367 ], [ -76.323741963429285, -13.154798434341442 ], [ -76.323628357311932, -13.154664700693935 ], [ -76.323520064742539, -13.154526797278853 ], [ -76.323417243647157, -13.154384929411282 ], [ -76.323320047342776, -13.154239303334105 ], [ -76.32322861720148, -13.154090134392211 ], [ -76.323143088151198, -13.153937640675661 ], [ -76.323132076838135, -13.153916091663225 ], [ -76.323063585005443, -13.153782046654852 ], [ -76.322990225220863, -13.153623581358131 ], [ -76.322923116125281, -13.153462477481963 ], [ -76.32291768069102, -13.153447849122109 ], [ -76.322884572997225, -13.153358755276937 ], [ -76.322883997524073, -13.153359475146985 ], [ -76.322807674297991, -13.153415952330796 ], [ -76.322793137021861, -13.153426710272329 ], [ -76.322706436547008, -13.153499028178649 ], [ -76.322624190901394, -13.153576182356506 ], [ -76.322562187360163, -13.153641560187106 ], [ -76.322546681881562, -13.153657909186707 ], [ -76.322474172762796, -13.153743931584671 ], [ -76.322440541444863, -13.153788942577467 ], [ -76.322406911042435, -13.153833954466128 ], [ -76.322345125706462, -13.15392767108939 ], [ -76.322289028151772, -13.15402476305046 ], [ -76.322249799869383, -13.154102983948381 ], [ -76.322238809409029, -13.154124898489323 ], [ -76.322194641084423, -13.15422773570109 ], [ -76.322156673519288, -13.15433292404955 ], [ -76.322125036717566, -13.154440104866334 ], [ -76.322099837587885, -13.154548913273189 ], [ -76.322106904441227, -13.154707343994179 ], [ -76.322106869798787, -13.154783669863251 ], [ -76.322106831889613, -13.154865926274805 ], [ -76.322099619184641, -13.155024350937211 ], [ -76.322085280342591, -13.155182309631037 ], [ -76.322063842294341, -13.155339493938808 ], [ -76.322035348590504, -13.1554955980691 ], [ -76.321999852943691, -13.155650318889684 ], [ -76.321957425676743, -13.1558033540863 ], [ -76.321908149124624, -13.155954404898502 ], [ -76.321852119489535, -13.156103177918146 ], [ -76.321789444985953, -13.156249383290961 ], [ -76.321720248618391, -13.156392736510288 ], [ -76.321644665408783, -13.156532957527444 ], [ -76.321562841493588, -13.156669774372496 ], [ -76.321497359369758, -13.15676895675098 ], [ -76.32147493686729, -13.15680291862 ], [ -76.321381123576046, -13.156932132630704 ], [ -76.321281582921202, -13.157057164141758 ], [ -76.321176509168851, -13.157177769863765 ], [ -76.321066106777451, -13.157293714591173 ], [ -76.320950592247712, -13.157404772096811 ], [ -76.320830188597341, -13.157510726968422 ], [ -76.320705131804061, -13.157611371863551 ], [ -76.320575665284892, -13.157706510250076 ] ] ] ] } },
{ "type": "Feature", "properties": { "id": 7, "qgs_fid": 7, "objectid_1": 7.0, "objectid": 0.0, "proyectoid": 3.0, "fid_": 0.0, "cod_sec": "S01", "shape_leng": 2806.8036297100002, "shape_area": 283318.05997599999 }, "geometry": { "type": "MultiPolygon", "coordinates": [ [ [ [ -76.322136886699127, -13.159996917777665 ], [ -76.32215972375765, -13.160029056444907 ], [ -76.322195815207763, -13.160079847782926 ], [ -76.322210327275442, -13.160100271327893 ], [ -76.322317179046976, -13.160238684249594 ], [ -76.322375553483695, -13.160308415312743 ], [ -76.322429509314787, -13.160372867808755 ], [ -76.322547143524375, -13.160502613159153 ], [ -76.322669898851331, -13.160627717825633 ], [ -76.322752980371263, -13.160705975000303 ], [ -76.322797586993076, -13.160747990209858 ], [ -76.322930008594795, -13.160863242386894 ], [ -76.323041239489456, -13.160960916084681 ], [ -76.323068111499353, -13.160986786920937 ], [ -76.323147780767243, -13.161063488493328 ], [ -76.32324940801351, -13.161170742900826 ], [ -76.323345905993477, -13.161282454411722 ], [ -76.323437071400761, -13.161398386316614 ], [ -76.323522713808714, -13.161518295511494 ], [ -76.323549635524444, -13.161559934342666 ], [ -76.323602651038797, -13.161641928905384 ], [ -76.323676715632317, -13.161769026099089 ], [ -76.323744752088245, -13.16189932030327 ], [ -76.323779295648137, -13.162770555142819 ], [ -76.323768205438427, -13.162805708167038 ], [ -76.323751512843558, -13.1628386661358 ], [ -76.323729648740425, -13.16286857973849 ], [ -76.323703178178647, -13.162894674911961 ], [ -76.32367278483963, -13.162916279138019 ], [ -76.323639252653791, -13.162932834195002 ], [ -76.323603447437563, -13.162943912525444 ], [ -76.323566292966447, -13.162949228208021 ], [ -76.323538224202693, -13.16294897153267 ], [ -76.323510354164085, -13.162945692519232 ], [ -76.322973922462722, -13.162820219184892 ], [ -76.322945375693777, -13.162815639061884 ], [ -76.322916453108832, -13.16281512092861 ], [ -76.322887754414168, -13.16281867525529 ], [ -76.322859874257091, -13.162826229366509 ], [ -76.32283338746133, -13.162837626613253 ], [ -76.322759140030939, -13.162907694635518 ], [ -76.329533560008571, -13.165269541051959 ], [ -76.330176460704095, -13.16367089072887 ], [ -76.32926890268341, -13.163234740241878 ], [ -76.328648439206802, -13.162936087738201 ], [ -76.327914903259241, -13.162532070312855 ], [ -76.328404483458684, -13.162157212591389 ], [ -76.329601995256283, -13.161313706143359 ], [ -76.329265605407812, -13.161133141880972 ], [ -76.329013338285492, -13.161008424563935 ], [ -76.328758031258872, -13.160889795151029 ], [ -76.328499836924408, -13.160777326976456 ], [ -76.328278359923786, -13.160686679257132 ], [ -76.328192407674351, -13.16065344747587 ], [ -76.327975408545527, -13.160571137787425 ], [ -76.327709488788088, -13.160477539892293 ], [ -76.327441311219488, -13.160390349469374 ], [ -76.327171034777692, -13.160309619030295 ], [ -76.326996948854301, -13.160262151695354 ], [ -76.326898822987999, -13.160235396543429 ], [ -76.326624839356001, -13.160167726361758 ], [ -76.326349246449254, -13.160106650131757 ], [ -76.326072211413575, -13.160052203148625 ], [ -76.325933055005393, -13.160028311070622 ], [ -76.325793898616979, -13.160004418914586 ], [ -76.325514475165505, -13.159963325494168 ], [ -76.325234109990475, -13.159928947327073 ], [ -76.324952969240826, -13.159901306155984 ], [ -76.324671222721335, -13.159880417377154 ], [ -76.324389038382037, -13.159866294589074 ], [ -76.324106585983856, -13.159858945053353 ], [ -76.323824034355553, -13.15985837422903 ], [ -76.323541553219371, -13.159864582147065 ], [ -76.323450699119377, -13.159868760651205 ], [ -76.323259311350867, -13.159877564323772 ], [ -76.322977479361214, -13.15989731445865 ], [ -76.322696224132997, -13.159923819038841 ], [ -76.322415716234346, -13.159957063629093 ], [ -76.322136886699127, -13.159996917777665 ] ] ] ] } },
{ "type": "Feature", "properties": { "id": 8, "qgs_fid": 8, "objectid_1": 8.0, "objectid": 0.0, "proyectoid": 1.0, "fid_": 0.0, "cod_sec": "S05", "shape_leng": 2508.0355050100002, "shape_area": 228671.95554699999 }, "geometry": { "type": "MultiPolygon", "coordinates": [ [ [ [ -76.318209782123759, -13.169093332951885 ], [ -76.314528394489713, -13.171590447488164 ], [ -76.31462172684634, -13.171625555841707 ], [ -76.315610234925757, -13.171819500904496 ], [ -76.315959328545389, -13.172024080129006 ], [ -76.316761606948162, -13.172336888775257 ], [ -76.317117718774142, -13.172456781871521 ], [ -76.317357028522636, -13.172519819871553 ], [ -76.31755013309315, -13.172602886284 ], [ -76.317799034764661, -13.172679761213001 ], [ -76.318584695869518, -13.172978356830853 ], [ -76.318868724275575, -13.173124175119728 ], [ -76.318379922494856, -13.173772935680041 ], [ -76.318133685179859, -13.174000255342897 ], [ -76.317769605153501, -13.17435812522915 ], [ -76.317418617251377, -13.174698572581175 ], [ -76.317155960268082, -13.174957852291008 ], [ -76.317058914836977, -13.175054558358294 ], [ -76.31773401965836, -13.175680736373067 ], [ -76.318103202412132, -13.176023829037236 ], [ -76.321579331643036, -13.171746404489342 ], [ -76.318209782123759, -13.169093332951885 ] ] ] ] } },
{ "type": "Feature", "properties": { "id": 9, "qgs_fid": 9, "objectid_1": 9.0, "objectid": 0.0, "proyectoid": 1.0, "fid_": 0.0, "cod_sec": "S02", "shape_leng": 1937.4499521400001, "shape_area": 196809.13209 }, "geometry": { "type": "MultiPolygon", "coordinates": [ [ [ [ -76.323161080641739, -13.180719087656977 ], [ -76.323161234011124, -13.180719040732415 ], [ -76.323298527847115, -13.1805840658077 ], [ -76.323550014881405, -13.18081746674617 ], [ -76.324870631953203, -13.179451197898373 ], [ -76.32495456100726, -13.179364366843464 ], [ -76.325063668308744, -13.179251486832282 ], [ -76.325073030473078, -13.179241800936833 ], [ -76.325125771124362, -13.179268321917819 ], [ -76.325500717729923, -13.178799657637489 ], [ -76.325985182109633, -13.178209975102861 ], [ -76.326395332076913, -13.177715682655375 ], [ -76.32684972559953, -13.177162451211037 ], [ -76.325726744237897, -13.176583281656201 ], [ -76.324202518875609, -13.175851767536809 ], [ -76.323465939588971, -13.175494696713722 ], [ -76.323509848645841, -13.17542016438489 ], [ -76.323439266553962, -13.175385948819475 ], [ -76.323368685114474, -13.175351732576225 ], [ -76.323341623884104, -13.175405333562804 ], [ -76.323317179535891, -13.175453750377267 ], [ -76.323289431603925, -13.175508712533606 ], [ -76.323275686282585, -13.175535937594365 ], [ -76.323119610865575, -13.175845079510875 ], [ -76.323019502706117, -13.176043366261291 ], [ -76.32293211826817, -13.176000632570458 ], [ -76.322913125206384, -13.176000240524273 ], [ -76.322906606635527, -13.176004844216331 ], [ -76.322897047793589, -13.176033180603103 ], [ -76.322804066721929, -13.176442747620786 ], [ -76.322662683603767, -13.177065513028746 ], [ -76.322491774402579, -13.177154690485013 ], [ -76.322433053498315, -13.177195066722412 ], [ -76.322366799471865, -13.177248045377452 ], [ -76.322297716762108, -13.177313455292094 ], [ -76.322218520423164, -13.177405295950916 ], [ -76.322131718049576, -13.177537787302017 ], [ -76.322066134278828, -13.177680665463663 ], [ -76.320663761204443, -13.178084078906551 ], [ -76.320502218200218, -13.178251202481077 ], [ -76.320502161391914, -13.178251342758864 ], [ -76.323161080641739, -13.180719087656977 ] ] ] ] } },
{ "type": "Feature", "properties": { "id": 10, "qgs_fid": 10, "objectid_1": 10.0, "objectid": 0.0, "proyectoid": 1.0, "fid_": 0.0, "cod_sec": "S04", "shape_leng": 2197.39897961, "shape_area": 246413.23238199999 }, "geometry": { "type": "MultiPolygon", "coordinates": [ [ [ [ -76.324390457556788, -13.17025797803478 ], [ -76.323796810110267, -13.16985260208307 ], [ -76.323018961098583, -13.169230707672323 ], [ -76.322867958201996, -13.169082574356576 ], [ -76.322436985017035, -13.168748551222519 ], [ -76.321986602036205, -13.168379793270089 ], [ -76.32164382634889, -13.16811940272304 ], [ -76.320751619542378, -13.167507936841718 ], [ -76.320629890241833, -13.16745169998838 ], [ -76.318209782123759, -13.169093332951885 ], [ -76.321579331643036, -13.171746404489342 ], [ -76.324376655266548, -13.173948842377268 ], [ -76.325744981270702, -13.171626197199718 ], [ -76.32562623757326, -13.17150080428333 ], [ -76.325373544709365, -13.171223971960353 ], [ -76.325293928618819, -13.171139328578219 ], [ -76.325012975254779, -13.170860764583537 ], [ -76.324818034253411, -13.170651014700203 ], [ -76.324390457556788, -13.17025797803478 ] ] ] ] } },
{ "type": "Feature", "properties": { "id": 11, "qgs_fid": 11, "objectid_1": 11.0, "objectid": 0.0, "proyectoid": 1.0, "fid_": 0.0, "cod_sec": "S03", "shape_leng": 2056.5752478999998, "shape_area": 257267.360438 }, "geometry": { "type": "MultiPolygon", "coordinates": [ [ [ [ -76.320502161391914, -13.178251342758864 ], [ -76.320502218200218, -13.178251202481077 ], [ -76.320663761204443, -13.178084078906551 ], [ -76.322066134278828, -13.177680665463663 ], [ -76.322131718049576, -13.177537787302017 ], [ -76.322218520423164, -13.177405295950916 ], [ -76.322297716762108, -13.177313455292094 ], [ -76.322366799471865, -13.177248045377452 ], [ -76.322433053498315, -13.177195066722412 ], [ -76.322491774402579, -13.177154690485013 ], [ -76.322662683603767, -13.177065513028746 ], [ -76.322804066721929, -13.176442747620786 ], [ -76.322897047793589, -13.176033180603103 ], [ -76.322906606635527, -13.176004844216331 ], [ -76.322913125206384, -13.176000240524273 ], [ -76.32293211826817, -13.176000632570458 ], [ -76.323019502706117, -13.176043366261291 ], [ -76.323119610865575, -13.175845079510875 ], [ -76.323275686282585, -13.175535937594365 ], [ -76.323289431603925, -13.175508712533606 ], [ -76.323317179535891, -13.175453750377267 ], [ -76.323341623884104, -13.175405333562804 ], [ -76.323368685114474, -13.175351732576225 ], [ -76.323439266553962, -13.175385948819475 ], [ -76.323509848645841, -13.17542016438489 ], [ -76.324376655266548, -13.173948842377268 ], [ -76.321579331643036, -13.171746404489342 ], [ -76.318103202412132, -13.176023829037236 ], [ -76.318109198758862, -13.176029401982227 ], [ -76.318917833236924, -13.176780887508505 ], [ -76.320502161391914, -13.178251342758864 ] ] ] ] } },
{ "type": "Feature", "properties": { "id": 12, "qgs_fid": 12, "objectid_1": 12.0, "objectid": 0.0, "proyectoid": 1.0, "fid_": 0.0, "cod_sec": "S01", "shape_leng": 1871.37596188, "shape_area": 83436.085579599996 }, "geometry": { "type": "MultiPolygon", "coordinates": [ [ [ [ -76.325125771124362, -13.179268321917819 ], [ -76.325073030473078, -13.179241800936833 ], [ -76.325063668308744, -13.179251486832282 ], [ -76.32495456100726, -13.179364366843464 ], [ -76.324870631953203, -13.179451197898373 ], [ -76.323550014881405, -13.18081746674617 ], [ -76.323298527847115, -13.1805840658077 ], [ -76.323161234011124, -13.180719040732415 ], [ -76.323161080641739, -13.180719087656977 ], [ -76.323165155247366, -13.180722869238251 ], [ -76.327412611946485, -13.184664765902822 ], [ -76.327902484429529, -13.184100920792124 ], [ -76.328000554538463, -13.183995013940757 ], [ -76.327471568332001, -13.183580362051645 ], [ -76.326769116986895, -13.182970308989763 ], [ -76.326118069896367, -13.182402121722257 ], [ -76.326248896841136, -13.182232019350087 ], [ -76.326476846840606, -13.181954977514605 ], [ -76.326248000507903, -13.181807009045132 ], [ -76.325632218720415, -13.181420625979639 ], [ -76.324914039161044, -13.180951835489319 ], [ -76.325270826894425, -13.180508276420712 ], [ -76.326018909422331, -13.179625213320037 ], [ -76.325617451483808, -13.179476200743704 ], [ -76.325104842123068, -13.179294494409389 ], [ -76.325125771124362, -13.179268321917819 ] ] ] ] } },
{ "type": "Feature", "properties": { "id": 13, "qgs_fid": 1, "objectid_1": 1.0, "objectid": 1.0, "proyectoid": 2.0, "fid_": 0.0, "cod_sec": "S02", "shape_leng": 2753.3521549299999, "shape_area": 268717.71898399998 }, "geometry": { "type": "MultiPolygon", "coordinates": [ [ [ [ -76.329965339972617, -13.184741107098771 ], [ -76.330886082471523, -13.185596652330629 ], [ -76.331199252614027, -13.185282458467748 ], [ -76.331917747664122, -13.185925895681619 ], [ -76.33163272044699, -13.186204869450123 ], [ -76.332559731536293, -13.187043980712883 ], [ -76.333613690362768, -13.185953036366238 ], [ -76.333614274162215, -13.185952697242422 ], [ -76.332369557002338, -13.18463546796535 ], [ -76.331868276780639, -13.184117394108714 ], [ -76.331776864170223, -13.184037794002931 ], [ -76.33127611582627, -13.18350388286605 ], [ -76.331200510840588, -13.183424227683558 ], [ -76.330699520757136, -13.182889886596811 ], [ -76.329798830763167, -13.182003395190598 ], [ -76.32909216698377, -13.182776144481473 ], [ -76.330518371071619, -13.184145651895285 ], [ -76.329965339972617, -13.184741107098771 ] ] ] ] } }
]
}
